SONATE-2
1 59112U 24043Q   26136.39945932  .00035797  00000+0  50790-3 0  9997
2 59112  97.5500 284.9138 0005805 317.3353  42.7450 15.56344901122942
GRBBeta
1 60237U 24128C   26136.02849504  .00002788  00000+0  19903-3 0  9994
2 60237  61.9902 329.0722 0045004 128.0351 232.4817 15.06357396101425
Curium One
1 60242U 24128H   26136.96061545  .00006952  00000+0  40647-3 0  9990
2 60242  61.9786 316.3307 0044308 124.7863 235.7415 15.11973375101737
ROBUSTA-3A
1 60243U 24128J   26136.90822103  .00006522  00000+0  39050-3 0  9999
2 60243  61.9865 318.8157 0045561 122.1587 238.3940 15.11147682101694
CatSat
1 60246U 24125J   26136.90079396  .00044065  00000+0  64667-3 0  9993
2 60246  97.2112 349.0783 0021155 298.0760  61.8355 15.55133822102525
ARTIC WX
1 60543U 24149CD  26136.92215875  .00000468  00000+0  54367-4 0  9991
2 60543  97.6809 208.2794 0001984 168.7466 191.3797 14.89799589 94640
ARCTICSAT 1
1 61762U 24199AD  26136.94093018  .00258272  00000+0  10135-2 0  9996
2 61762  97.2898  18.7266 0002599  96.7795 263.3772 15.86285948133132
HYPERVIEW-1G (RS66S)
1 61772U 24199AP  26136.93242040  .00088926  00000+0  78093-3 0  9992
2 61772  97.2935  15.2507 0006765  52.3631 307.8244 15.68513973129765
AO-123
1 61781U 24199AY  26136.94824127  .00006409  00000+0  18928-3 0  9992
2 61781  97.3039   5.9058 0015674  64.8965 295.3903 15.35186095129134
SAMSAT-IONOSPHERE
1 61784U 24199BB  26136.93694136  .00038657  00000+0  57840-3 0  9995
2 61784  97.2994  12.1503 0010113  49.8271 310.3867 15.54837268132707
LASARsat
1 62391U 24247Q   26136.88298946  .00025764  00000+0  55244-3 0  9998
2 62391  44.9753  77.8428 0005187 149.7413 210.3776 15.44323500 78470
CROCUBE
1 62394U 24247T   26136.85156071  .00029231  00000+0  59219-3 0  9999
2 62394  44.9724  75.8233 0004879 152.2127 207.9024 15.45929311 78494
JINJUSat 1B
1 63210U 25052A   26136.94446257  .00013046  00000+0  41834-3 0  9991
2 63210  97.4043  33.6779 0003444 159.2071 200.9312 15.32466761 65319
NUSHSAT 1
1 63211U 25052B   26136.97048907  .00016739  00000+0  49983-3 0  9990
2 63211  97.4022  34.1685 0003165 157.0193 203.1192 15.34680305 65359
TEVEL2-4
1 63213U 25052D   26136.67565560  .00016135  00000+0  50113-3 0  9995
2 63213  97.3944  33.0383 0002080 164.5157 195.6150 15.33440908 65287
TEVEL2-5
1 63214U 25052E   26136.95383831  .00014814  00000+0  46254-3 0  9999
2 63214  97.3941  33.2733 0002096 162.4575 197.6741 15.33291526 65327
TEVEL2-6
1 63215U 25052F   26136.44330495  .00017303  00000+0  54052-3 0  9993
2 63215  97.3947  32.7475 0002146 166.3416 193.7885 15.33241069 65248
TEVEL2-1
1 63217U 25052H   26136.65762439  .00015157  00000+0  48122-3 0  9991
2 63217  97.3918  32.6224 0001578 179.3842 180.7403 15.32754465 65266
TEVEL2-3
1 63218U 25052J   26136.65332798  .00015979  00000+0  50637-3 0  9999
2 63218  97.3922  32.6363 0001555 182.3566 177.7669 15.32802549 65265
TEVEL2-2
1 63219U 25052K   26136.46223559  .00015854  00000+0  50314-3 0  9997
2 63219  97.3920  32.4289 0001524 182.5666 177.5568 15.32756317 65232
TEVEL2-9
1 63237U 25052AD  26136.98795197  .00013898  00000+0  46782-3 0  9996
2 63237  97.3980  32.3946 0004153 243.1904 116.8912 15.30884643 65250
TEVEL2-7
1 63238U 25052AE  26136.95776912  .00012766  00000+0  43356-3 0  9995
2 63238  97.3983  32.2930 0004286 243.6541 116.4260 15.30613967 65245
TEVEL2-8
1 63239U 25052AF  26136.96567767  .00012671  00000+0  43061-3 0  9991
2 63239  97.3987  32.2789 0004195 244.8514 115.2292 15.30595985 65245
HADES-ICM (SO-125)
1 63492U 25052BN  26135.22960770  .00842919  32854-3  18347-2 0  9991
2 63492  97.3754  39.5599 0009891 173.5382 186.6025 15.98249306 65597
PARUS-T2
1 64560U 25135AJ  26136.75916081  .00002554  00000+0  23681-3 0  9990
2 64560  97.7705 251.7058 0001497  73.7201 286.4185 14.95335233 49215
Geoscan-1
1 64880U 25155E   26136.86477874  .00009166  00000+0  31749-3 0  9991
2 64880  97.4538 105.4373 0005561 295.6139  64.4527 15.30061882 75980
Geoscan-2
1 64890U 25155Q   26136.86405746  .00009070  00000+0  31156-3 0  9997
2 64890  97.4537 105.5764 0004760 276.9420  83.1279 15.30341828 75994
Geoscan-4
1 64892U 25155S   26136.85965068  .00012488  00000+0  40015-3 0  9997
2 64892  97.4536 106.0587 0004014 307.4918  52.5958 15.32501152 76027
Geoscan-3
1 64893U 25155T   26136.96392754  .00014510  00000+0  43924-3 0  9996
2 64893  97.4524 106.5084 0003585 309.2715  50.8209 15.34278768 76069
SPIRONE
1 66657U 25274H   26136.76524123  .00001397  00000+0  13827-3 0  9991
2 66657  97.7480  66.5101 0013585 115.3829 244.8799 14.93406887 25535
K-HERO
1 66660U 25274L   26136.77868364  .00000897  00000+0  89708-4 0  9990
2 66660  97.7487  66.6611 0015366 119.7314 240.5437 14.93831880 25547
SNUGLITE-III DURI
1 66661U 25274M   26136.76745241  .00001140  00000+0  11244-3 0  9999
2 66661  97.7485  66.6694 0015969 120.8993 239.3800 14.93886018 25545
GALAPAGOS
1 67279U 25313AH  26136.20165412  .00005682  00000+0  24840-3 0  9995
2 67279  97.3935 211.3250 0015826 114.8216 245.4669 15.22368306 21081
Lobachevsky
1 67282U 25313AL  26136.93897417  .00004314  00000+0  18781-3 0  9994
2 67282  97.3936 212.1574 0012332 108.0891 252.1691 15.22693242 21201
SAKHACUBE-CHOLBON
1 67290U 25313AU  26136.91842861  .00007659  00000+0  31600-3 0  9994
2 67290  97.3945 212.3575 0010971 106.1033 254.1413 15.24270824 21211
RS95S (QMR-KWT-2)
1 67291U 25313AV  26136.93265434  .00011535  00000+0  45848-3 0  9999
2 67291  97.3946 212.4880 0010628 105.8883 254.3527 15.25409500 21226
KNACKSAT-2
1 67683U 98067XZ  26136.86666601  .00035455  00000+0  48286-3 0  9999
2 67683  51.6291  91.6675 0012370  83.7858 276.4542 15.57110676 15399
Ten-Koh2
1 68261U 25241B   26136.92709150  .00005137  00000+0  22624-3 0  9992
2 68261  51.6558 108.3613 0006410  46.6066 313.5444 15.23465987 10146
JACK-002
1 68417U 26067B   26136.61109546  .00004951  00000+0  24000-3 0  9994
2 68417  97.4551  95.6069 0003542  60.2888 299.8699 15.18971565  7153
DISCO 2
1 68431U 26067R   26136.69055253  .00006078  00000+0  29717-3 0  9995
2 68431  97.4587  95.6769 0004377  98.2093 261.9638 15.18579936  7161
HADES-SA (SpinnyONE)
1 68446U 26067AG  26136.32731057  .00014056  00000+0  69482-3 0  9992
2 68446  97.4395  95.1336 0007415 164.8169 195.3288 15.17926626  7093
PARUS-6U1
1 68456U 26067AS  26136.86360979  .00003678  00000+0  18856-3 0  9990
2 68456  97.4538  95.7220 0006236 154.5951 205.5590 15.17165217  7187
SAL-E
1 68458U 26067AU  26136.86266703  .00005168  00000+0  26268-3 0  9994
2 68458  97.4465  95.6796 0006232 162.5802 197.5647 15.17279906  7189
FSI-SAT 2
1 68792U 26088A   26136.87264131  .00002740  00000+0  18895-3 0  9992
2 68792  97.5033 286.9322 0013842 208.5730 151.4740 15.06557134  3570
OrigamiSat 2
1 68795U 26088D   26136.65048248  .00001941  00000+0  12989-3 0  9990
2 68795  97.5037 286.7712 0015728 183.2998 176.8129 15.08008260  3540
ARICA 2
1 68796U 26088E   26136.84777597  .00002868  00000+0  18926-3 0  9994
2 68796  97.5018 286.9617 0015884 181.0788 179.0409 15.08140139  3573
WASEDA-SAT-ZERO-II
1 68797U 26088F   26136.84674443  .00004452  00000+0  29072-3 0  9996
2 68797  97.5017 286.9628 0015867 181.1782 178.9412 15.08239543  3571
MANGARO-II-Piscus
1 68798U 26088G   26136.70897007  .00003106  00000+0  20223-3 0  9999
2 68798  97.5027 286.8430 0019168 185.1781 174.9253 15.08523660  3557
Delfi-N3xt
1 39428U 13066N   26136.78512806  .00005536  00000-0  48890-3 0  9998
2 39428  97.8352  57.1333 0073586 312.3796  47.1210 14.94707445669937
HYDRA-W
1 63490U 25052BL  26113.93882235  .05662091  24406-5  29537-2 0  9997
2 63490  97.3690  18.2798 0008685 203.5899 156.4993 16.20186780 62336
SilverSat
1 66909U 98067XV  26113.44966717  .07226154  12288-4  11979-2 0  9998
2 66909  51.6027 190.0749 0007952 333.4666  26.5949 16.32457272 22308
IO-86
1 40931U          25360.30710720  .00000000  00000-0  12800-3 0    00
2 40931   6.0006 332.5373 0012733 338.8432   8.1437 14.79075515    01
LILIUM-4
1 71922C 26067AC  26089.50133053 -.00014632  00000 0 -74472-3 0    04
2 71922  97.4497  49.1617 0004341   5.9603 355.7042 15.16896692    16
PARUS-T1
1 98707U 25009N   25063.20000000  .00000000  00000-0  00000-0 0    08
2 98707  97.4430 144.9801 0003811 149.1702 136.3402 15.16239457    06
T.MicroSat-1
1 98515U 25276Y   25347.12519372 +.00009703 +00000+0 +47621-3 0 00218
2 98515  97.4377  58.8963 0002080  99.7173 260.4296 15.18293117002180
ARICA-2
1 98329U 27001A   26113.71443610  .00000000  00000-0  29916-3 0    03
2 98329  97.5133 264.2063 0010953 206.3608 281.8662 15.08387874    01
CORIOLIS
1 27640U 03001A   26136.98108970  .00000066  00000+0  51825-4 0  9999
2 27640  98.7135 144.3419 0012988 305.8473  54.1496 14.19935774209794
